{"Bechtelar PLC": {"phone_number": "050.876.8103", "city": "Johnsburgh", "name": "Bechtelar PLC", "zipcode": "64618", "street_address_2": "Apt. 461", "website": "kirlin.com", "state": "Florida", "street_address": "80396 Altenwerth Coves Suite 126", "description": "incubate granular communities"}, "Bartoletti-Swift": {"phone_number": "289.439.2702", "city": "New Javon", "name": "Bartoletti-Swift", "zipcode": "81358", "street_address_2": "Suite 796", "website": "grady.org", "state": "NewJersey", "street_address": "75979 Fahey Divide", "description": "visualize best-of-breed vortals"}, "Fay, Murphy and Weimann": {"phone_number": "1-505-890-9038", "city": "Port Felipe", "name": "Fay, Murphy and Weimann", "zipcode": "08885", "street_address_2": "Apt. 646", "website": "bradtke.com", "state": "Michigan", "street_address": "177 Veum Junction", "description": "transition frictionless metrics"}, "Haley-Quigley": {"phone_number": "05132249277", "city": "Lake Williemaestad", "name": "Haley-Quigley", "zipcode": "89119", "street_address_2": "Apt. 915", "website": "goyettearmstrong.com", "state": "Texas", "street_address": "6633 Torp Crossing Apt. 758", "description": "engineer rich architectures"}, "Fritsch PLC": {"phone_number": "06072919497", "city": "New Matthiasside", "name": "Fritsch PLC", "zipcode": "35384", "street_address_2": "Suite 688", "website": "schmidt.net", "state": "Delaware", "street_address": "641 Wilson Hill Apt. 622", "description": "disintermediate vertical content"}, "Halvorson-Wisozk": {"phone_number": "03645578916", "city": "Eathelhaven", "name": "Halvorson-Wisozk", "zipcode": "76899", "street_address_2": "Apt. 021", "website": "wilkinson.com", "state": "NorthCarolina", "street_address": "77669 Frami Dale", "description": "e-enable integrated systems"}, "Kautzer Group": {"phone_number": "08817279228", "city": "Sienaville", "name": "Kautzer Group", "zipcode": "20840", "street_address_2": "Suite 508", "website": "simonis.com", "state": "Michigan", "street_address": "5168 Jacobs Club Apt. 938", "description": "innovate granular channels"}, "Klein-Powlowski": {"phone_number": "1-299-479-5649", "city": "Lake Mario", "name": "Klein-Powlowski", "zipcode": "45517", "street_address_2": "Suite 866", "website": "marquardt.biz", "state": "Kentucky", "street_address": "32746 Gaylord Harbors", "description": "monetize scalable paradigms"}, "Gottlieb-Champlin": {"phone_number": "+49(6)0187319870", "city": "New Robynview", "name": "Gottlieb-Champlin", "zipcode": "41256", "street_address_2": "Suite 191", "website": "kiehn.com", "state": "Iowa", "street_address": "1492 Terrie Mission", "description": "grow 24/365 interfaces"}, "Kohler-Jaskolski": {"phone_number": "369-665-8641x424", "city": "West Gretchen", "name": "Kohler-Jaskolski", "zipcode": "81040", "street_address_2": "Suite 204", "website": "bayer.org", "state": "Alaska", "street_address": "8359 Alyse Gateway", "description": "reinvent cross-media deliverables"}, "Roberts-Kiehn": {"phone_number": "637.004.2361x97458", "city": "North Deandrahaven", "name": "Roberts-Kiehn", "zipcode": "09397", "street_address_2": "Suite 649", "website": "rolfson.info", "state": "Wisconsin", "street_address": "060 Curt Cliffs Apt. 862", "description": "synthesize visionary e-commerce"}, "Hayes-Nicolas": {"phone_number": "1-811-753-6194x870", "city": "South Robt", "name": "Hayes-Nicolas", "zipcode": "72415", "street_address_2": "Suite 497", "website": "okunevarobel.info", "state": "Washington", "street_address": "6773 Anfernee Forge Apt. 017", "description": "incentivize plug-and-play experiences"}, "Hodkiewicz Ltd": {"phone_number": "628.653.8237x79665", "city": "Lemkemouth", "name": "Hodkiewicz Ltd", "zipcode": "61835", "street_address_2": "Suite 281", "website": "okuneva.com", "state": "Massachusetts", "street_address": "431 Volkman Ville", "description": "exploit strategic interfaces"}, "Koss-Runolfsdottir": {"phone_number": "07307772938", "city": "West Devin", "name": "Koss-Runolfsdottir", "zipcode": "35884", "street_address_2": "Apt. 684", "website": "thompson.info", "state": "Tennessee", "street_address": "341 Ashely River", "description": "transition web-enabled convergence"}, "Block LLC": {"phone_number": "+99(1)8643096724", "city": "Bradtkemouth", "name": "Block LLC", "zipcode": "35228", "street_address_2": "Apt. 765", "website": "champlin.org", "state": "Idaho", "street_address": "171 Jerrod Harbors", "description": "engineer impactful vortals"}, "Rice and Sons": {"phone_number": "(699)940-5648", "city": "Port Wardell", "name": "Rice and Sons", "zipcode": "07069", "street_address_2": "Suite 616", "website": "williamson.org", "state": "Illinois", "street_address": "775 Genie Meadow", "description": "extend bricks-and-clicks convergence"}, "Langosh, Bartoletti and Brekke": {"phone_number": "(028)831-2210", "city": "Carliehaven", "name": "Langosh, Bartoletti and Brekke", "zipcode": "54240", "street_address_2": "Apt. 525", "website": "torphymueller.com", "state": "NewHampshire", "street_address": "837 Keeling Roads Apt. 128", "description": "grow B2B experiences"}, "Cummerata, Howe and Lind": {"phone_number": "1-146-483-9527", "city": "East Bossmouth", "name": "Cummerata, Howe and Lind", "zipcode": "91439", "street_address_2": "Apt. 036", "website": "wisokyfahey.info", "state": "Michigan", "street_address": "948 Turner Inlet Apt. 186", "description": "visualize wireless info-mediaries"}, "Muller, Emmerich and Bradtke": {"phone_number": "156-287-6011x1974", "city": "Hoppeland", "name": "Muller, Emmerich and Bradtke", "zipcode": "15069", "street_address_2": "Suite 418", "website": "hansen.com", "state": "NewHampshire", "street_address": "25211 Cronin Plains Suite 810", "description": "syndicate distributed partnerships"}, "Wiza-Howell": {"phone_number": "1-643-846-6995x159", "city": "Dickensland", "name": "Wiza-Howell", "zipcode": "10446", "street_address_2": "Apt. 094", "website": "nienow.com", "state": "NorthDakota", "street_address": "47275 Lyndsey Land Apt. 833", "description": "maximize visionary platforms"}, "Barrows Inc": {"phone_number": "06651913899", "city": "East India", "name": "Barrows Inc", "zipcode": "68911", "street_address_2": "Suite 707", "website": "wisozkbartoletti.com", "state": "Montana", "street_address": "909 Cleve Shoal", "description": "repurpose 24/365 mindshare"}, "Barton-Fahey": {"phone_number": "841.868.6841x398", "city": "East Florene", "name": "Barton-Fahey", "zipcode": "66825", "street_address_2": "Suite 253", "website": "lueilwitz.com", "state": "NorthCarolina", "street_address": "6154 Thora Loop", "description": "enhance front-end partnerships"}, "Torp-Cartwright": {"phone_number": "+85(9)9345580981", "city": "East Craig", "name": "Torp-Cartwright", "zipcode": "92193", "street_address_2": "Apt. 237", "website": "bauch.com", "state": "NewHampshire", "street_address": "82385 Jerome Locks Suite 796", "description": "revolutionize scalable synergies"}, "Muller and Sons": {"phone_number": "367.909.2543x08081", "city": "Wymanberg", "name": "Muller and Sons", "zipcode": "29003", "street_address_2": "Apt. 328", "website": "abbott.com", "state": "NorthDakota", "street_address": "901 Miller Shoal", "description": "monetize holistic methodologies"}, "Will-Homenick": {"phone_number": "348-735-1445x96522", "city": "Lueilwitzfurt", "name": "Will-Homenick", "zipcode": "59950", "street_address_2": "Suite 596", "website": "bins.com", "state": "SouthDakota", "street_address": "23285 Trevor Squares Apt. 921", "description": "reinvent innovative solutions"}, "Klocko LLC": {"phone_number": "1-907-750-5578x597", "city": "South Brysonside", "name": "Klocko LLC", "zipcode": "86443", "street_address_2": "Apt. 946", "website": "stamm.info", "state": "Connecticut", "street_address": "2445 Torp Landing", "description": "seize vertical e-tailers"}, "Lakin-Kihn": {"phone_number": "807.509.3134x8291", "city": "Paulineview", "name": "Lakin-Kihn", "zipcode": "67784", "street_address_2": "Suite 405", "website": "conroyoberbrunner.com", "state": "Mississippi", "street_address": "186 Chantel Corners Apt. 632", "description": "deploy intuitive web-readiness"}, "Fadel, Stanton and Predovic": {"phone_number": "492.351.9733x391", "city": "Spinkamouth", "name": "Fadel, Stanton and Predovic", "zipcode": "03885", "street_address_2": "Apt. 027", "website": "langworthschuppe.biz", "state": "Idaho", "street_address": "267 Mettie Viaduct Suite 967", "description": "streamline revolutionary communities"}, "Mraz, Dickens and Ondricka": {"phone_number": "1-767-376-2224", "city": "Arabury", "name": "Mraz, Dickens and Ondricka", "zipcode": "73091", "street_address_2": "Apt. 137", "website": "welch.biz", "state": "Montana", "street_address": "2695 Billy Field Apt. 137", "description": "engineer wireless systems"}, "Pacocha-Jacobi": {"phone_number": "663.212.7891x22855", "city": "Salmaborough", "name": "Pacocha-Jacobi", "zipcode": "67607", "street_address_2": "Apt. 818", "website": "shanahan.com", "state": "Missouri", "street_address": "008 Evie Pine", "description": "unleash bricks-and-clicks infrastructures"}, "Kris Ltd": {"phone_number": "08617690887", "city": "North Allie", "name": "Kris Ltd", "zipcode": "44339", "street_address_2": "Suite 157", "website": "reinger.com", "state": "Washington", "street_address": "8699 Case Harbors Suite 328", "description": "mesh vertical experiences"}, "Champlin-Stark": {"phone_number": "294.565.9551x22937", "city": "Corenemouth", "name": "Champlin-Stark", "zipcode": "75066", "street_address_2": "Suite 523", "website": "schinner.com", "state": "Wisconsin", "street_address": "2083 Gorczany Tunnel Apt. 826", "description": "harness B2B methodologies"}, "Ziemann-Hansen": {"phone_number": "(358)644-4165x84662", "city": "Kulaston", "name": "Ziemann-Hansen", "zipcode": "79038", "street_address_2": "Apt. 876", "website": "mcglynn.org", "state": "Maine", "street_address": "618 DuBuque Orchard Apt. 790", "description": "empower transparent applications"}, "Keeling-Yundt": {"phone_number": "(370)988-5065", "city": "West Ruffinbury", "name": "Keeling-Yundt", "zipcode": "94222", "street_address_2": "Suite 478", "website": "reinger.info", "state": "NewYork", "street_address": "619 Matilda Park Suite 112", "description": "brand extensible users"}, "Keeling, Johns and Leuschke": {"phone_number": "1-663-507-2122", "city": "Reillychester", "name": "Keeling, Johns and Leuschke", "zipcode": "45530", "street_address_2": "Apt. 856", "website": "daniel.com", "state": "Idaho", "street_address": "2242 Olympia Gardens", "description": "visualize ubiquitous web services"}, "Will, Kovacek and Schmitt": {"phone_number": "+01(9)2063533105", "city": "New Anatoleburgh", "name": "Will, Kovacek and Schmitt", "zipcode": "45069", "street_address_2": "Suite 002", "website": "lefflerwuckert.com", "state": "Utah", "street_address": "09755 Karyl Mews Suite 609", "description": "empower mission-critical e-tailers"}, "Reichel, Bergstrom and Pouros": {"phone_number": "+00(0)9925493977", "city": "Kuphalbury", "name": "Reichel, Bergstrom and Pouros", "zipcode": "91910", "street_address_2": "Apt. 444", "website": "shields.com", "state": "Ohio", "street_address": "113 Hoeger Shoal", "description": "syndicate viral e-tailers"}, "Reynolds Group": {"phone_number": "143.209.9566x724", "city": "Babeville", "name": "Reynolds Group", "zipcode": "54973", "street_address_2": "Apt. 127", "website": "kemmerdooley.com", "state": "Georgia", "street_address": "76626 Bernhard Points", "description": "reinvent front-end deliverables"}, "Waelchi, Emard and Volkman": {"phone_number": "+28(9)0359151261", "city": "New Wash", "name": "Waelchi, Emard and Volkman", "zipcode": "10146", "street_address_2": "Suite 364", "website": "tromp.net", "state": "Kentucky", "street_address": "68526 Luettgen Falls", "description": "reinvent global content"}, "Balistreri Group": {"phone_number": "+87(3)3287517956", "city": "North Cristen", "name": "Balistreri Group", "zipcode": "85119", "street_address_2": "Suite 518", "website": "smitham.com", "state": "Nevada", "street_address": "1519 Burdette Groves Apt. 241", "description": "evolve front-end markets"}, "McLaughlin-Sporer": {"phone_number": "1-442-478-4545", "city": "New Hardinview", "name": "McLaughlin-Sporer", "zipcode": "33394", "street_address_2": "Apt. 090", "website": "bartell.com", "state": "Ohio", "street_address": "384 Jazmin Shores Apt. 919", "description": "evolve e-business niches"}, "Kuhic-Ebert": {"phone_number": "(763)350-0612", "city": "Friedaburgh", "name": "Kuhic-Ebert", "zipcode": "28538", "street_address_2": "Apt. 263", "website": "eichmann.net", "state": "Missouri", "street_address": "88741 Juelz Curve Suite 743", "description": "embrace end-to-end users"}, "Mills Inc": {"phone_number": "01832445482", "city": "Gasperfort", "name": "Mills Inc", "zipcode": "95239", "street_address_2": "Suite 516", "website": "von.net", "state": "Pennsylvania", "street_address": "62823 Nienow Cove", "description": "iterate vertical platforms"}, "Sanford-Romaguera": {"phone_number": "(281)877-2118x6827", "city": "East Aaliyah", "name": "Sanford-Romaguera", "zipcode": "83732", "street_address_2": "Suite 198", "website": "wehner.com", "state": "WestVirginia", "street_address": "46829 Kole Burgs Apt. 194", "description": "enable virtual action-items"}, "Ankunding PLC": {"phone_number": "296.704.8787x8735", "city": "Sheenaborough", "name": "Ankunding PLC", "zipcode": "69598", "street_address_2": "Apt. 329", "website": "kuvalis.com", "state": "Michigan", "street_address": "9183 Gleichner Ville Suite 578", "description": "extend frictionless action-items"}, "Smith, Cassin and Blick": {"phone_number": "+59(6)2189445828", "city": "Lake Galenchester", "name": "Smith, Cassin and Blick", "zipcode": "69305", "street_address_2": "Apt. 138", "website": "maggiolegros.info", "state": "Maine", "street_address": "743 Smith Bypass Apt. 743", "description": "deliver innovative info-mediaries"}, "Hauck, Jaskolski and Herzog": {"phone_number": "272.001.6865", "city": "East Hays", "name": "Hauck, Jaskolski and Herzog", "zipcode": "83458", "street_address_2": "Apt. 220", "website": "murazik.com", "state": "Missouri", "street_address": "1725 Larson Crescent", "description": "productize e-business partnerships"}, "Orn, Boehm and Dickens": {"phone_number": "08608587569", "city": "New Dylan", "name": "Orn, Boehm and Dickens", "zipcode": "85059", "street_address_2": "Apt. 487", "website": "cartwright.com", "state": "Utah", "street_address": "0067 Hodkiewicz Orchard Suite 379", "description": "synthesize revolutionary bandwidth"}, "Robel Inc": {"phone_number": "973.022.2174x570", "city": "West Dasiafort", "name": "Robel Inc", "zipcode": "32209", "street_address_2": "Suite 437", "website": "ernsermorar.com", "state": "Arizona", "street_address": "8660 Dean Forks Apt. 362", "description": "synthesize vertical markets"}, "Gutmann Inc": {"phone_number": "1-504-087-5066x6278", "city": "South Hermina", "name": "Gutmann Inc", "zipcode": "67350", "street_address_2": "Suite 161", "website": "hackett.biz", "state": "Minnesota", "street_address": "89093 Emmet Field", "description": "engineer world-class supply-chains"}, "Dach-Beatty": {"phone_number": "+97(9)0599878779", "city": "Kiehnfurt", "name": "Dach-Beatty", "zipcode": "17627", "street_address_2": "Suite 773", "website": "farrell.com", "state": "Missouri", "street_address": "001 Alvan Stravenue Suite 810", "description": "architect sticky portals"}, "Feeney-Mertz": {"phone_number": "509-215-5945", "city": "Marquesbury", "name": "Feeney-Mertz", "zipcode": "81156", "street_address_2": "Suite 360", "website": "cruickshank.com", "state": "SouthDakota", "street_address": "112 Sybil Rue", "description": "enable magnetic networks"}, "Anderson Group": {"phone_number": "291.554.1048", "city": "West Toivoton", "name": "Anderson Group", "zipcode": "64250", "street_address_2": "Apt. 117", "website": "streich.com", "state": "Massachusetts", "street_address": "7678 Sherrill Tunnel Apt. 182", "description": "evolve revolutionary architectures"}, "Jones, Walsh and Stokes": {"phone_number": "140-292-3825x6743", "city": "Kulasland", "name": "Jones, Walsh and Stokes", "zipcode": "04531", "street_address_2": "Apt. 740", "website": "boyer.org", "state": "SouthCarolina", "street_address": "362 Conway Estates", "description": "matrix dynamic bandwidth"}, "Howell LLC": {"phone_number": "1-762-687-5220x15437", "city": "Weberburgh", "name": "Howell LLC", "zipcode": "22478", "street_address_2": "Suite 548", "website": "krajcik.com", "state": "Hawaii", "street_address": "751 Larson Islands Apt. 966", "description": "re-contextualize strategic convergence"}, "Mante Group": {"phone_number": "664.205.1042", "city": "Kertzmannmouth", "name": "Mante Group", "zipcode": "58671", "street_address_2": "Suite 502", "website": "kuhnrunolfsson.info", "state": "NorthCarolina", "street_address": "35541 Chet Crest", "description": "innovate 24/7 e-tailers"}, "O'Connell PLC": {"phone_number": "1-642-553-3174x359", "city": "Hegmannshire", "name": "O'Connell PLC", "zipcode": "02654", "street_address_2": "Suite 125", "website": "kihn.com", "state": "Montana", "street_address": "655 Jacobson Row", "description": "disintermediate value-added web services"}, "VonRueden-Kertzmann": {"phone_number": "115.542.9801x80183", "city": "Justenland", "name": "VonRueden-Kertzmann", "zipcode": "23824", "street_address_2": "Apt. 039", "website": "hermannleuschke.com", "state": "Texas", "street_address": "0486 Botsford Shores", "description": "architect distributed technologies"}, "Kovacek, Reinger and Adams": {"phone_number": "1-268-096-7674x88070", "city": "Port Evelyn", "name": "Kovacek, Reinger and Adams", "zipcode": "00555", "street_address_2": "Apt. 535", "website": "walsh.com", "state": "Vermont", "street_address": "01728 Jaymes Curve", "description": "monetize 24/7 ROI"}, "Aufderhar and Sons": {"phone_number": "(092)225-1581", "city": "Lylahland", "name": "Aufderhar and Sons", "zipcode": "65138", "street_address_2": "Suite 404", "website": "hintz.com", "state": "WestVirginia", "street_address": "8252 Frazier Shores Suite 097", "description": "redefine B2B paradigms"}, "Casper and Sons": {"phone_number": "(417)407-1862x51349", "city": "East Daysefort", "name": "Casper and Sons", "zipcode": "55296", "street_address_2": "Suite 188", "website": "mantebruen.net", "state": "Oregon", "street_address": "69920 Schmitt Land Suite 443", "description": "enhance frictionless deliverables"}, "Thiel, Shanahan and Lowe": {"phone_number": "859-212-8285x858", "city": "Port Tresa", "name": "Thiel, Shanahan and Lowe", "zipcode": "12622", "street_address_2": "Suite 257", "website": "yundt.info", "state": "Washington", "street_address": "50098 Williamson Shoal", "description": "re-intermediate e-business web-readiness"}, "Romaguera, O'Connell and Conroy": {"phone_number": "785-614-7261", "city": "Rosenaborough", "name": "Romaguera, O'Connell and Conroy", "zipcode": "89080", "street_address_2": "Suite 899", "website": "huel.com", "state": "Kentucky", "street_address": "6918 McLaughlin Crossroad", "description": "evolve B2B markets"}, "Ondricka, Treutel and Gleason": {"phone_number": "1-002-698-6504x035", "city": "Marvinview", "name": "Ondricka, Treutel and Gleason", "zipcode": "83338", "street_address_2": "Suite 440", "website": "kesslerstanton.com", "state": "Delaware", "street_address": "6531 Feeney Station", "description": "aggregate ubiquitous channels"}, "Haag Ltd": {"phone_number": "+84(3)2582793834", "city": "North Ameliemouth", "name": "Haag Ltd", "zipcode": "75167", "street_address_2": "Apt. 474", "website": "kertzmann.com", "state": "Mississippi", "street_address": "227 Zula Ports", "description": "revolutionize virtual solutions"}, "Lebsack-Blanda": {"phone_number": "(534)766-6032x6855", "city": "Cristmouth", "name": "Lebsack-Blanda", "zipcode": "01679", "street_address_2": "Apt. 309", "website": "okon.com", "state": "Wisconsin", "street_address": "72642 Stracke Crossing Suite 528", "description": "synergize plug-and-play portals"}, "Welch, Watsica and Connelly": {"phone_number": "472-104-6314x26914", "city": "Melisamouth", "name": "Welch, Watsica and Connelly", "zipcode": "50914", "street_address_2": "Apt. 214", "website": "vandervort.org", "state": "Missouri", "street_address": "766 Waelchi Isle Suite 632", "description": "monetize granular mindshare"}, "Hodkiewicz, Rutherford and O'Connell": {"phone_number": "(546)749-0843x957", "city": "South Hansfordfurt", "name": "Hodkiewicz, Rutherford and O'Connell", "zipcode": "36389", "street_address_2": "Apt. 598", "website": "zemlak.net", "state": "Minnesota", "street_address": "41424 O'Hara Spur", "description": "maximize user-centric supply-chains"}, "Reichert Ltd": {"phone_number": "01674680814", "city": "Port Dena", "name": "Reichert Ltd", "zipcode": "88051", "street_address_2": "Apt. 257", "website": "feil.com", "state": "Virginia", "street_address": "08279 Ruecker Points Apt. 754", "description": "cultivate proactive initiatives"}, "Stiedemann-Hand": {"phone_number": "159.997.7663", "city": "Bogisichton", "name": "Stiedemann-Hand", "zipcode": "63552", "street_address_2": "Suite 226", "website": "block.com", "state": "Indiana", "street_address": "6225 Kuphal Prairie Apt. 272", "description": "target value-added e-business"}, "Hand, Hane and Larkin": {"phone_number": "(509)361-9200x8510", "city": "Sharronville", "name": "Hand, Hane and Larkin", "zipcode": "64041", "street_address_2": "Apt. 705", "website": "reinger.com", "state": "Georgia", "street_address": "5919 Gale Burgs", "description": "seize value-added web services"}, "Mueller, Klein and Leuschke": {"phone_number": "(783)964-3958", "city": "Thompsonport", "name": "Mueller, Klein and Leuschke", "zipcode": "95700", "street_address_2": "Apt. 366", "website": "hills.com", "state": "Delaware", "street_address": "61115 Bergstrom Center Suite 881", "description": "embrace leading-edge e-markets"}, "Rodriguez Inc": {"phone_number": "427-838-4247x427", "city": "Alidaville", "name": "Rodriguez Inc", "zipcode": "29684", "street_address_2": "Suite 561", "website": "flatleyheaney.net", "state": "Georgia", "street_address": "376 Ronald Loop Apt. 638", "description": "utilize interactive e-markets"}, "Kovacek-Raynor": {"phone_number": "961.782.1290x922", "city": "Donacianobury", "name": "Kovacek-Raynor", "zipcode": "02235", "street_address_2": "Suite 696", "website": "schimmel.com", "state": "California", "street_address": "8912 Effertz Path Apt. 142", "description": "orchestrate synergistic systems"}, "Kerluke, Ullrich and Doyle": {"phone_number": "1-940-881-8194", "city": "Rozellaborough", "name": "Kerluke, Ullrich and Doyle", "zipcode": "46059", "street_address_2": "Suite 926", "website": "zemlakjast.com", "state": "Idaho", "street_address": "3628 Aloma Orchard Apt. 799", "description": "productize best-of-breed channels"}, "Stanton-Kutch": {"phone_number": "384.229.8857x8796", "city": "Vernitaville", "name": "Stanton-Kutch", "zipcode": "83453", "street_address_2": "Suite 475", "website": "morar.com", "state": "Kansas", "street_address": "4663 Latesha Islands", "description": "incubate strategic networks"}, "Jaskolski and Sons": {"phone_number": "+53(6)5457480716", "city": "Skileston", "name": "Jaskolski and Sons", "zipcode": "92119", "street_address_2": "Suite 098", "website": "ruecker.biz", "state": "Maryland", "street_address": "3025 Rita Springs", "description": "seize value-added synergies"}, "Cartwright-Hermiston": {"phone_number": "624-842-7521x82772", "city": "Everettetown", "name": "Cartwright-Hermiston", "zipcode": "86243", "street_address_2": "Apt. 753", "website": "wuckert.com", "state": "Colorado", "street_address": "998 Domonique Divide Suite 824", "description": "harness e-business e-commerce"}, "Douglas-Will": {"phone_number": "730.986.5097x8063", "city": "Florenefort", "name": "Douglas-Will", "zipcode": "02259", "street_address_2": "Apt. 319", "website": "johnson.info", "state": "Massachusetts", "street_address": "27784 Yasmine Well", "description": "redefine world-class infrastructures"}, "Denesik Ltd": {"phone_number": "(950)300-3515", "city": "New Artie", "name": "Denesik Ltd", "zipcode": "15468", "street_address_2": "Suite 728", "website": "herman.net", "state": "Nebraska", "street_address": "29880 Trevion Branch", "description": "re-contextualize B2B schemas"}, "Howell Inc": {"phone_number": "04188175523", "city": "Yundtberg", "name": "Howell Inc", "zipcode": "92549", "street_address_2": "Suite 987", "website": "shanahan.info", "state": "Montana", "street_address": "5823 Kassulke Extension Suite 575", "description": "envisioneer end-to-end synergies"}, "Von LLC": {"phone_number": "344.270.5432", "city": "South Alfred", "name": "Von LLC", "zipcode": "91391", "street_address_2": "Apt. 945", "website": "bogan.org", "state": "Arkansas", "street_address": "3489 Friesen Plain Apt. 952", "description": "leverage open-source e-markets"}, "Braun-Kuhic": {"phone_number": "180.435.2981x2705", "city": "Pricefort", "name": "Braun-Kuhic", "zipcode": "84892", "street_address_2": "Apt. 709", "website": "zulauf.com", "state": "Tennessee", "street_address": "2455 Heather Villages Suite 391", "description": "generate rich web-readiness"}, "Jones-Greenholt": {"phone_number": "(838)550-9248x672", "city": "South Lilburnburgh", "name": "Jones-Greenholt", "zipcode": "77612", "street_address_2": "Suite 960", "website": "kulas.com", "state": "Maine", "street_address": "309 Friesen Forge Suite 770", "description": "leverage extensible models"}, "Ruecker-Howell": {"phone_number": "(924)636-8009x47403", "city": "East Luciafort", "name": "Ruecker-Howell", "zipcode": "18037", "street_address_2": "Suite 859", "website": "hermann.com", "state": "Michigan", "street_address": "687 Sherrie Plaza Suite 271", "description": "productize e-business paradigms"}, "Blanda Group": {"phone_number": "(674)323-2814x33141", "city": "Geoside", "name": "Blanda Group", "zipcode": "70371", "street_address_2": "Apt. 582", "website": "west.com", "state": "Georgia", "street_address": "0592 Fay Island", "description": "synthesize holistic action-items"}, "Ritchie, Wisozk and Lowe": {"phone_number": "(605)137-2955x47949", "city": "Port Laneburgh", "name": "Ritchie, Wisozk and Lowe", "zipcode": "83108", "street_address_2": "Apt. 903", "website": "huelswatsica.com", "state": "Georgia", "street_address": "06915 Abshire Mall Suite 247", "description": "exploit value-added e-services"}, "Rogahn PLC": {"phone_number": "1-396-386-2734", "city": "East Litzy", "name": "Rogahn PLC", "zipcode": "67075", "street_address_2": "Apt. 243", "website": "gleichnerbeer.com", "state": "Georgia", "street_address": "5080 Volkman Shores Apt. 929", "description": "deploy one-to-one functionalities"}, "Smitham-Kerluke": {"phone_number": "026.347.8955", "city": "Kiethfort", "name": "Smitham-Kerluke", "zipcode": "33636", "street_address_2": "Suite 041", "website": "schowalter.com", "state": "Minnesota", "street_address": "7895 Cristofer Cliffs", "description": "exploit B2B ROI"}, "Dickens-Tillman": {"phone_number": "00866539483", "city": "Connfurt", "name": "Dickens-Tillman", "zipcode": "22598", "street_address_2": "Suite 708", "website": "lockman.com", "state": "Iowa", "street_address": "7147 Guilford Turnpike Suite 816", "description": "enable robust paradigms"}, "Streich-Bogisich": {"phone_number": "+85(4)7019069224", "city": "East Pearley", "name": "Streich-Bogisich", "zipcode": "79902", "street_address_2": "Suite 019", "website": "bogan.com", "state": "Maryland", "street_address": "12165 Vere Haven", "description": "maximize mission-critical eyeballs"}, "Quitzon, Fisher and Wolf": {"phone_number": "662.499.6998x70786", "city": "New Signemouth", "name": "Quitzon, Fisher and Wolf", "zipcode": "75157", "street_address_2": "Suite 641", "website": "heidenreich.com", "state": "NewMexico", "street_address": "10062 Kirt Unions Apt. 799", "description": "transform intuitive bandwidth"}, "Kohler LLC": {"phone_number": "1-612-414-6007", "city": "Maganton", "name": "Kohler LLC", "zipcode": "55849", "street_address_2": "Apt. 830", "website": "bayer.com", "state": "SouthCarolina", "street_address": "80858 Brandyn Run", "description": "maximize transparent markets"}, "Hirthe-Stehr": {"phone_number": "737.252.9271x75722", "city": "Port Blanchie", "name": "Hirthe-Stehr", "zipcode": "80585", "street_address_2": "Apt. 015", "website": "moore.net", "state": "NewJersey", "street_address": "5241 Jocelyne Lake", "description": "whiteboard back-end applications"}, "Ortiz, Schuppe and Feest": {"phone_number": "+59(0)1706508417", "city": "West Leifberg", "name": "Ortiz, Schuppe and Feest", "zipcode": "66307", "street_address_2": "Apt. 637", "website": "lynch.com", "state": "SouthCarolina", "street_address": "24006 Evalyn Inlet", "description": "repurpose magnetic info-mediaries"}, "Boyer, Halvorson and Simonis": {"phone_number": "+05(1)4372944977", "city": "Dibberttown", "name": "Boyer, Halvorson and Simonis", "zipcode": "16511", "street_address_2": "Apt. 313", "website": "kihn.org", "state": "Nebraska", "street_address": "43834 Josephus Radial Apt. 567", "description": "revolutionize strategic technologies"}, "Hessel-Dicki": {"phone_number": "093.924.4859x93262", "city": "West Jacklyn", "name": "Hessel-Dicki", "zipcode": "09358", "street_address_2": "Suite 457", "website": "paucekberge.com", "state": "Nevada", "street_address": "1804 McLaughlin Ports", "description": "mesh 24/7 markets"}, "O'Hara, Murazik and Mraz": {"phone_number": "792-259-0872x01402", "city": "Marquardtport", "name": "O'Hara, Murazik and Mraz", "zipcode": "06459", "street_address_2": "Suite 106", "website": "hills.com", "state": "NewJersey", "street_address": "3191 Roe Unions", "description": "utilize B2B synergies"}, "Nitzsche-Tromp": {"phone_number": "180-769-8736", "city": "Noreneville", "name": "Nitzsche-Tromp", "zipcode": "78328", "street_address_2": "Apt. 963", "website": "dickinsonwitting.com", "state": "Iowa", "street_address": "4613 Braun Court Apt. 655", "description": "generate world-class supply-chains"}, "Renner, Anderson and McDermott": {"phone_number": "503.764.9337", "city": "East Gaige", "name": "Renner, Anderson and McDermott", "zipcode": "21513", "street_address_2": "Apt. 769", "website": "weissnatrunte.com", "state": "Oklahoma", "street_address": "469 Kristi Forge Suite 310", "description": "redefine user-centric communities"}}